STARLINK-36399          
1 67665U 26022T   26062.03569614  .00397221  00000+0  25254-2 0  9995
2 67665  97.2832  95.7162 0001347 132.0460 228.0920 15.75342132  4509
STARLINK-36365          
1 67666U 26022U   26062.03428515  .00403148  00000+0  25609-2 0  9990
2 67666  97.2835  95.7185 0001596 126.6069 233.5343 15.75345768  4506
STARLINK-36622          
1 67667U 26022V   26062.09604681  .00146472  00000+0  96542-3 0  9996
2 67667  97.2822  95.7874 0001089  10.9453 349.1836 15.75207219  4517
STARLINK-36625          
1 67668U 26022W   26062.03111005  .00251647  00000+0  16323-2 0  9993
2 67668  97.2830  95.7225 0001065 125.3004 234.8361 15.75281677  4506
STARLINK-36639          
1 67669U 26022X   26062.09286772  .00096693  00000+0  64178-3 0  9994
2 67669  97.2830  95.7909 0001073  69.2069 290.9311 15.75192121  4516
STARLINK-36596          
1 67670U 26022Y   26062.09110689  .00172706  00000+0  11361-2 0  9994
2 67670  97.2833  95.7935 0001627  33.9152 326.2217 15.75177264  4515
STARLINK-36297          
1 67671U 26022Z   26062.08898669  .00120062  00000+0  79398-3 0  9998
2 67671  97.2832  95.7965 0001314  80.1852 279.9561 15.75206441  4518
STARLINK-36616          
1 67672U 26022AA  26062.02687326  .00212005  00000+0  13817-2 0  9991
2 67672  97.2845  95.7284 0001040  79.4764 280.6618 15.75282626  4506
COSMOS 2600             
1 67674U 26023A   26062.32995561  .00078542  00000+0  36855-3 0  9994
2 67674  96.6452 138.1740 0002344   1.5761 358.5517 15.82971127  4046
2026-023B               
1 67675U 26023B   26062.54382442  .00015579  00000+0  66449-3 0  9990
2 67675  96.6372 136.2039 0019136 152.8863 207.3379 15.22819988  3921
2026-023C               
1 67676U 26023C   26062.54256281  .00013545  00000+0  57615-3 0  9998
2 67676  96.6406 136.2254 0020204 143.2764 216.9864 15.22921241  4080
2026-023D               
1 67677U 26023D   26062.54493925  .00014450  00000+0  61765-3 0  9994
2 67677  96.6438 136.2137 0020410 148.1113 212.1366 15.22740603  3914
2026-023E               
1 67678U 26023E   26062.54299742  .00017455  00000+0  74173-3 0  9991
2 67678  96.6330 136.1955 0020184 147.5856 212.6627 15.22906125  3916
2026-023F               
1 67679U 26023F   26062.54058933  .00015425  00000+0  65232-3 0  9998
2 67679  96.6340 138.6957 0022084 142.4465 217.8321 15.23055047  3904
2026-023G               
1 67680U 26023G   26062.54126635  .00016801  00000+0  71024-3 0  9990
2 67680  96.6267 138.6788 0023626 139.0121 221.2899 15.23017461  3907
2026-023H               
1 67681U 26023H   26062.54133885  .00013905  00000+0  58954-3 0  9995
2 67681  96.6412 138.7081 0023695 138.3873 221.9174 15.22954119  3901
2026-023J               
1 67682U 26023J   26062.54025515  .00014124  00000+0  59705-3 0  9995
2 67682  96.6368 138.7129 0023844 135.2960 225.0206 15.23048114  3905
