[{"OBJECT_NAME":"STARLINK-36399","OBJECT_ID":"2026-022T","EPOCH":"2026-03-03T00:51:24.146496","MEAN_MOTION":15.75342132,"ECCENTRICITY":0.0001347,"INCLINATION":97.2832,"RA_OF_ASC_NODE":95.7162,"ARG_OF_PERICENTER":132.046,"MEAN_ANOMALY":228.092,"EPHEMERIS_TYPE":0,"CLASSIFICATION_TYPE":"U","NORAD_CAT_ID":67665,"ELEMENT_SET_NO":999,"REV_AT_EPOCH":450,"BSTAR":0.0025254,"MEAN_MOTION_DOT":0.00397221,"MEAN_MOTION_DDOT":0},{"OBJECT_NAME":"STARLINK-36365","OBJECT_ID":"2026-022U","EPOCH":"2026-03-03T00:49:22.236960","MEAN_MOTION":15.75345768,"ECCENTRICITY":0.0001596,"INCLINATION":97.2835,"RA_OF_ASC_NODE":95.7185,"ARG_OF_PERICENTER":126.6069,"MEAN_ANOMALY":233.5343,"EPHEMERIS_TYPE":0,"CLASSIFICATION_TYPE":"U","NORAD_CAT_ID":67666,"ELEMENT_SET_NO":999,"REV_AT_EPOCH":450,"BSTAR":0.0025609,"MEAN_MOTION_DOT":0.00403148,"MEAN_MOTION_DDOT":0},{"OBJECT_NAME":"STARLINK-36622","OBJECT_ID":"2026-022V","EPOCH":"2026-03-03T02:18:18.444384","MEAN_MOTION":15.75207219,"ECCENTRICITY":0.0001089,"INCLINATION":97.2822,"RA_OF_ASC_NODE":95.7874,"ARG_OF_PERICENTER":10.9453,"MEAN_ANOMALY":349.1836,"EPHEMERIS_TYPE":0,"CLASSIFICATION_TYPE":"U","NORAD_CAT_ID":67667,"ELEMENT_SET_NO":999,"REV_AT_EPOCH":451,"BSTAR":0.00096542,"MEAN_MOTION_DOT":0.00146472,"MEAN_MOTION_DDOT":0},{"OBJECT_NAME":"STARLINK-36625","OBJECT_ID":"2026-022W","EPOCH":"2026-03-03T00:44:47.908320","MEAN_MOTION":15.75281677,"ECCENTRICITY":0.0001065,"INCLINATION":97.283,"RA_OF_ASC_NODE":95.7225,"ARG_OF_PERICENTER":125.3004,"MEAN_ANOMALY":234.8361,"EPHEMERIS_TYPE":0,"CLASSIFICATION_TYPE":"U","NORAD_CAT_ID":67668,"ELEMENT_SET_NO":999,"REV_AT_EPOCH":450,"BSTAR":0.0016323,"MEAN_MOTION_DOT":0.00251647,"MEAN_MOTION_DDOT":0},{"OBJECT_NAME":"STARLINK-36639","OBJECT_ID":"2026-022X","EPOCH":"2026-03-03T02:13:43.771008","MEAN_MOTION":15.75192121,"ECCENTRICITY":0.0001073,"INCLINATION":97.283,"RA_OF_ASC_NODE":95.7909,"ARG_OF_PERICENTER":69.2069,"MEAN_ANOMALY":290.9311,"EPHEMERIS_TYPE":0,"CLASSIFICATION_TYPE":"U","NORAD_CAT_ID":67669,"ELEMENT_SET_NO":999,"REV_AT_EPOCH":451,"BSTAR":0.00064178,"MEAN_MOTION_DOT":0.00096693,"MEAN_MOTION_DDOT":0},{"OBJECT_NAME":"STARLINK-36596","OBJECT_ID":"2026-022Y","EPOCH":"2026-03-03T02:11:11.635296","MEAN_MOTION":15.75177264,"ECCENTRICITY":0.0001627,"INCLINATION":97.2833,"RA_OF_ASC_NODE":95.7935,"ARG_OF_PERICENTER":33.9152,"MEAN_ANOMALY":326.2217,"EPHEMERIS_TYPE":0,"CLASSIFICATION_TYPE":"U","NORAD_CAT_ID":67670,"ELEMENT_SET_NO":999,"REV_AT_EPOCH":451,"BSTAR":0.0011361,"MEAN_MOTION_DOT":0.00172706,"MEAN_MOTION_DDOT":0},{"OBJECT_NAME":"STARLINK-36297","OBJECT_ID":"2026-022Z","EPOCH":"2026-03-03T02:08:08.450016","MEAN_MOTION":15.75206441,"ECCENTRICITY":0.0001314,"INCLINATION":97.2832,"RA_OF_ASC_NODE":95.7965,"ARG_OF_PERICENTER":80.1852,"MEAN_ANOMALY":279.9561,"EPHEMERIS_TYPE":0,"CLASSIFICATION_TYPE":"U","NORAD_CAT_ID":67671,"ELEMENT_SET_NO":999,"REV_AT_EPOCH":451,"BSTAR":0.00079398,"MEAN_MOTION_DOT":0.00120062,"MEAN_MOTION_DDOT":0},{"OBJECT_NAME":"STARLINK-36616","OBJECT_ID":"2026-022AA","EPOCH":"2026-03-03T00:38:41.849664","MEAN_MOTION":15.75282626,"ECCENTRICITY":0.000104,"INCLINATION":97.2845,"RA_OF_ASC_NODE":95.7284,"ARG_OF_PERICENTER":79.4764,"MEAN_ANOMALY":280.6618,"EPHEMERIS_TYPE":0,"CLASSIFICATION_TYPE":"U","NORAD_CAT_ID":67672,"ELEMENT_SET_NO":999,"REV_AT_EPOCH":450,"BSTAR":0.0013817,"MEAN_MOTION_DOT":0.00212005,"MEAN_MOTION_DDOT":0},{"OBJECT_NAME":"COSMOS 2600","OBJECT_ID":"2026-023A","EPOCH":"2026-03-03T07:55:08.164704","MEAN_MOTION":15.82971127,"ECCENTRICITY":0.0002344,"INCLINATION":96.6452,"RA_OF_ASC_NODE":138.174,"ARG_OF_PERICENTER":1.5761,"MEAN_ANOMALY":358.5517,"EPHEMERIS_TYPE":0,"CLASSIFICATION_TYPE":"U","NORAD_CAT_ID":67674,"ELEMENT_SET_NO":999,"REV_AT_EPOCH":404,"BSTAR":0.00036855,"MEAN_MOTION_DOT":0.00078542,"MEAN_MOTION_DDOT":0},{"OBJECT_NAME":"2026-023B","OBJECT_ID":"2026-023B","EPOCH":"2026-03-03T13:03:06.429888","MEAN_MOTION":15.22819988,"ECCENTRICITY":0.0019136,"INCLINATION":96.6372,"RA_OF_ASC_NODE":136.2039,"ARG_OF_PERICENTER":152.8863,"MEAN_ANOMALY":207.3379,"EPHEMERIS_TYPE":0,"CLASSIFICATION_TYPE":"U","NORAD_CAT_ID":67675,"ELEMENT_SET_NO":999,"REV_AT_EPOCH":392,"BSTAR":0.00066449,"MEAN_MOTION_DOT":0.00015579,"MEAN_MOTION_DDOT":0},{"OBJECT_NAME":"2026-023C","OBJECT_ID":"2026-023C","EPOCH":"2026-03-03T13:01:17.426784","MEAN_MOTION":15.22921241,"ECCENTRICITY":0.0020204,"INCLINATION":96.6406,"RA_OF_ASC_NODE":136.2254,"ARG_OF_PERICENTER":143.2764,"MEAN_ANOMALY":216.9864,"EPHEMERIS_TYPE":0,"CLASSIFICATION_TYPE":"U","NORAD_CAT_ID":67676,"ELEMENT_SET_NO":999,"REV_AT_EPOCH":408,"BSTAR":0.00057615,"MEAN_MOTION_DOT":0.00013545,"MEAN_MOTION_DDOT":0},{"OBJECT_NAME":"2026-023D","OBJECT_ID":"2026-023D","EPOCH":"2026-03-03T13:04:42.751200","MEAN_MOTION":15.22740603,"ECCENTRICITY":0.002041,"INCLINATION":96.6438,"RA_OF_ASC_NODE":136.2137,"ARG_OF_PERICENTER":148.1113,"MEAN_ANOMALY":212.1366,"EPHEMERIS_TYPE":0,"CLASSIFICATION_TYPE":"U","NORAD_CAT_ID":67677,"ELEMENT_SET_NO":999,"REV_AT_EPOCH":391,"BSTAR":0.00061765,"MEAN_MOTION_DOT":0.0001445,"MEAN_MOTION_DDOT":0},{"OBJECT_NAME":"2026-023E","OBJECT_ID":"2026-023E","EPOCH":"2026-03-03T13:01:54.977088","MEAN_MOTION":15.22906125,"ECCENTRICITY":0.0020184,"INCLINATION":96.633,"RA_OF_ASC_NODE":136.1955,"ARG_OF_PERICENTER":147.5856,"MEAN_ANOMALY":212.6627,"EPHEMERIS_TYPE":0,"CLASSIFICATION_TYPE":"U","NORAD_CAT_ID":67678,"ELEMENT_SET_NO":999,"REV_AT_EPOCH":391,"BSTAR":0.00074173,"MEAN_MOTION_DOT":0.00017455,"MEAN_MOTION_DDOT":0},{"OBJECT_NAME":"2026-023F","OBJECT_ID":"2026-023F","EPOCH":"2026-03-03T12:58:26.918112","MEAN_MOTION":15.23055047,"ECCENTRICITY":0.0022084,"INCLINATION":96.634,"RA_OF_ASC_NODE":138.6957,"ARG_OF_PERICENTER":142.4465,"MEAN_ANOMALY":217.8321,"EPHEMERIS_TYPE":0,"CLASSIFICATION_TYPE":"U","NORAD_CAT_ID":67679,"ELEMENT_SET_NO":999,"REV_AT_EPOCH":390,"BSTAR":0.00065232,"MEAN_MOTION_DOT":0.00015425,"MEAN_MOTION_DDOT":0},{"OBJECT_NAME":"2026-023G","OBJECT_ID":"2026-023G","EPOCH":"2026-03-03T12:59:25.412640","MEAN_MOTION":15.23017461,"ECCENTRICITY":0.0023626,"INCLINATION":96.6267,"RA_OF_ASC_NODE":138.6788,"ARG_OF_PERICENTER":139.0121,"MEAN_ANOMALY":221.2899,"EPHEMERIS_TYPE":0,"CLASSIFICATION_TYPE":"U","NORAD_CAT_ID":67680,"ELEMENT_SET_NO":999,"REV_AT_EPOCH":390,"BSTAR":0.00071024,"MEAN_MOTION_DOT":0.00016801,"MEAN_MOTION_DDOT":0},{"OBJECT_NAME":"2026-023H","OBJECT_ID":"2026-023H","EPOCH":"2026-03-03T12:59:31.676640","MEAN_MOTION":15.22954119,"ECCENTRICITY":0.0023695,"INCLINATION":96.6412,"RA_OF_ASC_NODE":138.7081,"ARG_OF_PERICENTER":138.3873,"MEAN_ANOMALY":221.9174,"EPHEMERIS_TYPE":0,"CLASSIFICATION_TYPE":"U","NORAD_CAT_ID":67681,"ELEMENT_SET_NO":999,"REV_AT_EPOCH":390,"BSTAR":0.00058954,"MEAN_MOTION_DOT":0.00013905,"MEAN_MOTION_DDOT":0},{"OBJECT_NAME":"2026-023J","OBJECT_ID":"2026-023J","EPOCH":"2026-03-03T12:57:58.044960","MEAN_MOTION":15.23048114,"ECCENTRICITY":0.0023844,"INCLINATION":96.6368,"RA_OF_ASC_NODE":138.7129,"ARG_OF_PERICENTER":135.296,"MEAN_ANOMALY":225.0206,"EPHEMERIS_TYPE":0,"CLASSIFICATION_TYPE":"U","NORAD_CAT_ID":67682,"ELEMENT_SET_NO":999,"REV_AT_EPOCH":390,"BSTAR":0.00059705,"MEAN_MOTION_DOT":0.00014124,"MEAN_MOTION_DDOT":0}]
